NORAD_CAT_ID,OBJECT_NAME,OBJECT_TYPE,EPOCH,MEAN_MOTION,ECCENTRICITY,INCLINATION,RA_OF_ASC_NODE,ARG_OF_PERICENTER,MEAN_ANOMALY,BSTAR,MEAN_MOTION_DOT,MEAN_MOTION_DDOT,TLE_LINE0,TLE_LINE1,TLE_LINE2,SEMIMAJOR_AXIS,PERIOD,APOGEE,PERIGEE,DECAYED
53532.0,STARLINK-4483,PAYLOAD,2023-05-30 12:48:27,15.08838184,0.0001005,53.2156,306.8431,88.3829,271.7278,-5.3206e-05,-1.134e-05,0.0,0 STARLINK-4483,1 53532U 22101F   23150.53364926 -.00001134  00000-0 -53206-4 0  9994,2 53532  53.2156 306.8431 0001005  88.3829 271.7278 15.08838184 43064,6917.886,95.438,540.446,539.056,0.0
53532.0,STARLINK-4483,PAYLOAD,2023-05-30 15:59:13,15.08840054,9.92e-05,53.2154,306.2486,88.6111,271.4994,-2.1892e-05,-6.36e-06,0.0,0 STARLINK-4483,1 53532U 22101F   23150.66612831 -.00000636  00000-0 -21892-4 0  9991,2 53532  53.2154 306.2486 0000992  88.6111 271.4994 15.08840054 43080,6917.88,95.438,540.431,539.059,0.0
53532.0,STARLINK-4483,PAYLOAD,2023-05-31 09:28:28,15.08838878,9.64e-05,53.2153,302.9779,98.125,261.9851,0.00012271,1.666e-05,0.0,0 STARLINK-4483,1 53532U 22101F   23151.39476952  .00001666  00000-0  12271-3 0  9996,2 53532  53.2153 302.9779 0000964  98.1250 261.9851 15.08838878 43195,6917.884,95.438,540.416,539.082,0.0
53532.0,STARLINK-4483,PAYLOAD,2023-05-31 14:14:37,15.08838882,9.48e-05,53.2155,302.0856,97.3936,262.7164,5.0052e-05,5.09e-06,0.0,0 STARLINK-4483,1 53532U 22101F   23151.59348972  .00000509  00000-0  50052-4 0  9993,2 53532  53.2155 302.0856 0000948  97.3936 262.7164 15.08838882 43223,6917.884,95.438,540.405,539.093,0.0
53532.0,STARLINK-4483,PAYLOAD,2023-05-31 19:00:46,15.08847366,0.0001155,53.2157,301.1933,99.2909,260.8214,0.00011428,1.532e-05,0.0,0 STARLINK-4483,1 53532U 22101F   23151.79220535  .00001532  00000-0  11428-3 0  9999,2 53532  53.2157 301.1933 0001155  99.2909 260.8214 15.08847366 43258,6917.858,95.437,540.522,538.924,0.0
53532.0,STARLINK-4483,PAYLOAD,2023-06-02 02:48:29,15.08836255,0.0001165,53.2168,295.243,83.6375,276.475,1.7088e-05,-1.6e-07,0.0,0 STARLINK-4483,1 53532U 22101F   23153.11701340 -.00000016  00000-0  17088-4 0  9991,2 53532  53.2168 295.2430 0001165  83.6375 276.4750 15.08836255 43455,6917.892,95.438,540.563,538.951,0.0
53532.0,STARLINK-4483,PAYLOAD,2023-06-02 13:56:12,15.08837343,0.0001463,53.2174,293.1592,86.0629,274.053,-3.9067e-05,-9.1e-06,0.0,0 STARLINK-4483,1 53532U 22101F   23153.58069487 -.00000910  00000-0 -39067-4 0  9996,2 53532  53.2174 293.1592 0001463  86.0629 274.0530 15.08837343 43525,6917.889,95.438,540.766,538.741,0.0
53532.0,STARLINK-4483,PAYLOAD,2023-06-02 18:42:21,15.08841225,0.0001058,53.2171,292.2685,90.1955,269.9158,3.6089e-06,-2.3e-06,0.0,0 STARLINK-4483,1 53532U 22101F   23153.77941521 -.00000230  00000-0  36089-5 0  9991,2 53532  53.2171 292.2685 0001058  90.1955 269.9158 15.08841225 43559,6917.877,95.437,540.474,539.01,0.0
53532.0,STARLINK-4483,PAYLOAD,2023-06-03 09:00:49,15.08832771,9.02e-05,53.2158,289.5938,100.0617,260.0477,8.9022e-05,1.129e-05,0.0,0 STARLINK-4483,1 53532U 22101F   23154.37557854  .00001129  00000-0  89022-4 0  9991,2 53532  53.2158 289.5938 0000902 100.0617 260.0477 15.08832771 43649,6917.902,95.438,540.391,539.143,0.0
53532.0,STARLINK-4483,PAYLOAD,2023-06-03 13:46:59,15.08842597,9.19e-05,53.2152,288.7024,88.9417,271.168,7.8834e-06,-1.62e-06,0.0,0 STARLINK-4483,1 53532U 22101F   23154.57429618 -.00000162  00000-0  78834-5 0  9996,2 53532  53.2152 288.7024 0000919  88.9417 271.1680 15.08842597 43679,6917.872,95.437,540.373,539.102,0.0
53532.0,STARLINK-4483,PAYLOAD,2023-06-03 15:22:22,15.08842016,0.0001152,53.2155,288.4051,80.3641,279.7482,2.9133e-05,1.76e-06,0.0,0 STARLINK-4483,1 53532U 22101F   23154.64053650  .00000176  00000-0  29133-4 0  9994,2 53532  53.2155 288.4051 0001152  80.3641 279.7482 15.08842016 43685,6917.874,95.437,540.536,538.942,0.0
53532.0,STARLINK-4483,PAYLOAD,2023-06-04 15:13:09,15.08840285,8.35e-05,53.2163,283.9442,85.7086,274.4002,0.00014316,1.991e-05,0.0,0 STARLINK-4483,1 53532U 22101F   23155.63413443  .00001991  00000-0  14316-3 0  9996,2 53532  53.2163 283.9442 0000835  85.7086 274.4002 15.08840285 43830,6917.88,95.438,540.322,539.167,0.0
53532.0,STARLINK-4483,PAYLOAD,2023-06-04 18:23:55,15.08813818,0.0001166,53.2165,283.3493,100.0362,260.0762,0.00057611,8.886e-05,0.0,0 STARLINK-4483,1 53532U 22101F   23155.76662004  .00008886  00000-0  57611-3 0  9994,2 53532  53.2165 283.3493 0001166 100.0362 260.0762 15.08813818 43856,6917.96,95.439,540.632,539.019,0.0
53532.0,STARLINK-4483,PAYLOAD,2023-06-05 08:42:24,15.08836834,9.88e-05,53.2171,280.6708,94.2912,265.8193,0.00010121,1.323e-05,0.0,0 STARLINK-4483,1 53532U 22101F   23156.36277796  .00001323  00000-0  10121-3 0  9995,2 53532  53.2171 280.6708 0000988  94.2912 265.8193 15.08836834 43942,6917.89,95.438,540.439,539.072,0.0
53532.0,STARLINK-4483,PAYLOAD,2023-06-05 13:28:33,15.08841801,0.0001086,53.2156,279.7801,98.9071,261.2045,8.0529e-05,9.94e-06,0.0,0 STARLINK-4483,1 53532U 22101F   23156.56149514  .00000994  00000-0  80529-4 0  9996,2 53532  53.2156 279.7801 0001086  98.9071 261.2045 15.08841801 43974,6917.875,95.437,540.491,538.989,0.0
53532.0,STARLINK-4483,PAYLOAD,2023-06-05 18:14:42,15.08847414,9.35e-05,53.2167,278.8895,91.4293,268.6806,0.00012017,1.626e-05,0.0,0 STARLINK-4483,1 53532U 22101F   23156.76021105  .00001626  00000-0  12017-3 0  9992,2 53532  53.2167 278.8895 0000935  91.4293 268.6806 15.08847414 44002,6917.858,95.437,540.37,539.076,0.0
53532.0,STARLINK-4483,PAYLOAD,2023-06-06 08:33:11,15.08838115,0.0001363,53.2169,276.2127,99.4513,260.6634,2.6654e-05,1.36e-06,0.0,0 STARLINK-4483,1 53532U 22101F   23157.35637979  .00000136  00000-0  26654-4 0  9998,2 53532  53.2169 276.2127 0001363  99.4513 260.6634 15.08838115 44091,6917.886,95.438,540.694,538.808,0.0
53532.0,STARLINK-4483,PAYLOAD,2023-06-06 11:43:57,15.08834762,0.0001079,53.2168,275.619,91.8328,268.2788,1.8298e-05,3e-08,0.0,0 STARLINK-4483,1 53532U 22101F   23157.48886174  .00000003  00000-0  18298-4 0  9993,2 53532  53.2168 275.6190 0001079  91.8328 268.2788 15.08834762 44118,6917.896,95.438,540.508,539.015,0.0
53532.0,STARLINK-4483,PAYLOAD,2023-06-06 18:05:29,15.08844139,0.0001127,53.2165,274.4291,102.997,257.1148,7.7111e-05,9.4e-06,0.0,0 STARLINK-4483,1 53532U 22101F   23157.75381416  .00000940  00000-0  77111-4 0  9991,2 53532  53.2165 274.4291 0001127 102.9970 257.1148 15.08844139 44155,6917.868,95.437,540.512,538.953,0.0
53532.0,STARLINK-4483,PAYLOAD,2023-06-07 08:23:58,15.08830983,9.69e-05,53.2167,271.7527,91.4695,268.6408,-3.8468e-05,-9e-06,0.0,0 STARLINK-4483,1 53532U 22101F   23158.34998700 -.00000900  00000-0 -38468-4 0  9997,2 53532  53.2167 271.7527 0000969  91.4695 268.6408 15.08830983 44246,6917.908,95.438,540.443,539.103,0.0
53532.0,STARLINK-4483,PAYLOAD,2023-06-07 16:20:53,15.08842082,9.09e-05,53.2169,270.2655,93.294,266.8156,3.7496e-05,3.09e-06,0.0,0 STARLINK-4483,1 53532U 22101F   23158.68117834  .00000309  00000-0  37496-4 0  9996,2 53532  53.2169 270.2655 0000909  93.2940 266.8156 15.08842082 44299,6917.874,95.437,540.368,539.11,0.0
53532.0,STARLINK-4483,PAYLOAD,2023-06-07 19:31:39,15.08844263,9.21e-05,53.2169,269.6708,94.5005,265.6092,5.6501e-05,6.12e-06,0.0,0 STARLINK-4483,1 53532U 22101F   23158.81365634  .00000612  00000-0  56501-4 0  9999,2 53532  53.2169 269.6708 0000921  94.5005 265.6092 15.08844263 44312,6917.867,95.437,540.369,539.095,0.0
53532.0,STARLINK-4483,PAYLOAD,2023-06-08 13:00:54,15.08837668,0.0001117,53.2169,266.4008,90.2272,269.8848,0.00010742,1.422e-05,0.0,0 STARLINK-4483,1 53532U 22101F   23159.54230252  .00001422  00000-0  10742-3 0  9993,2 53532  53.2169 266.4008 0001117  90.2272 269.8848 15.08837668 44425,6917.888,95.438,540.525,538.98,0.0
53532.0,STARLINK-4483,PAYLOAD,2023-06-08 19:22:26,15.08850278,9.97e-05,53.2166,265.2116,88.3477,271.7629,0.00016446,2.331e-05,0.0,0 STARLINK-4483,1 53532U 22101F   23159.80725286  .00002331  00000-0  16446-3 0  9995,2 53532  53.2166 265.2116 0000997  88.3477 271.7629 15.08850278 44464,6917.849,95.437,540.404,539.024,0.0
53532.0,STARLINK-4483,PAYLOAD,2023-06-09 12:51:42,15.08833681,9.21e-05,53.2165,261.9399,85.1212,274.9885,5.9484e-06,-1.93e-06,0.0,0 STARLINK-4483,1 53532U 22101F   23160.53591050 -.00000193  00000-0  59484-5 0  9993,2 53532  53.2165 261.9399 0000921  85.1212 274.9885 15.08833681 44578,6917.9,95.438,540.402,539.128,0.0
53532.0,STARLINK-4483,PAYLOAD,2023-06-09 23:59:24,15.08843842,0.000116,53.2167,259.8567,91.4321,268.6804,3.3294e-05,2.42e-06,0.0,0 STARLINK-4483,1 53532U 22101F   23160.99958406  .00000242  00000-0  33294-4 0  9999,2 53532  53.2167 259.8567 0001160  91.4321 268.6804 15.08843842 44649,6917.869,95.437,540.536,538.931,0.0
53532.0,STARLINK-4483,PAYLOAD,2023-06-10 12:42:28,15.08849837,0.0001134,53.2151,257.4797,83.6437,276.4685,0.00027916,4.159e-05,0.0,0 STARLINK-4483,1 53532U 22101F   23161.52950096  .00004159  00000-0  27916-3 0  9990,2 53532  53.2151 257.4797 0001134  83.6437 276.4685 15.08849837 44726,6917.85,95.437,540.5,538.931,0.0
53532.0,STARLINK-4483,PAYLOAD,2023-06-11 09:22:30,15.08839519,0.0001151,53.2151,253.6145,82.1112,278.001,6.0671e-05,6.78e-06,0.0,0 STARLINK-4483,1 53532U 22101F   23162.39062509  .00000678  00000-0  60671-4 0  9997,2 53532  53.2151 253.6145 0001151  82.1112 278.0010 15.08839519 44854,6917.882,95.438,540.543,538.951,0.0
53532.0,STARLINK-4483,PAYLOAD,2023-06-11 12:33:16,15.08843491,0.0001164,53.2148,253.0188,86.3626,273.7499,0.00010208,1.337e-05,0.0,0 STARLINK-4483,1 53532U 22101F   23162.52310314  .00001337  00000-0  10208-3 0  9995,2 53532  53.2148 253.0188 0001164  86.3626 273.7499 15.08843491 44870,6917.87,95.437,540.54,538.929,0.0
53532.0,STARLINK-4483,PAYLOAD,2023-06-11 15:44:02,15.08842116,0.0001141,53.2144,252.4246,81.9217,278.1904,0.00017728,2.535e-05,0.0,0 STARLINK-4483,1 53532U 22101F   23162.65558376  .00002535  00000-0  17728-3 0  9996,2 53532  53.2144 252.4246 0001141  81.9217 278.1904 15.08842116 44891,6917.874,95.437,540.528,538.95,0.0
